IRIDIUM 155             
1 43573U 18061E   19316.56230273  .00000080  00000-0  21680-4 0  9995
2 43573  86.3960 343.2996 0001661  79.8981 280.2402 14.34217540 68135
IRIDIUM 154             
1 43574U 18061F   19316.54328532  .00000084  00000-0  23067-4 0  9995
2 43574  86.3964 343.3272 0002514  92.8866 267.2618 14.34216699 68175
IRIDIUM 163             
1 43575U 18061G   19316.52424439  .00000086  00000-0  23768-4 0  9997
2 43575  86.3962 343.3234 0002294 110.9246 249.2195 14.34219569 68147
IRIDIUM 156             
1 43576U 18061H   19316.49887068  .00000102  00000-0  29467-4 0  9996
2 43576  86.3962 343.3385 0001840  99.8110 260.3294 14.34216315 68124
IRIDIUM 164             
1 43577U 18061J   19316.54961285  .00000088  00000-0  24235-4 0  9998
2 43577  86.3963 343.3211 0002393  95.5060 264.6408 14.34215727 68181
IRIDIUM 159             
1 43578U 18061K   19316.23882653  .00000084  00000-0  23055-4 0  9991
2 43578  86.3962 343.4384 0002372  93.2907 266.8560 14.34217252 68105
IRIDIUM 180             
1 43922U 19002A   19316.51741184  .00000052  00000-0  11482-4 0  9990
2 43922  86.3943 280.1153 0003364  98.1574 262.0004 14.34217424 43794
IRIDIUM 176             
1 43923U 19002B   19316.45144865  .00000116  00000-0  14492-4 0  9992
2 43923  86.6078 280.1611 0002396  93.0769 267.0722 14.72254197 44850
IRIDIUM 168             
1 43924U 19002C   19316.51106101  .00000056  00000-0  12768-4 0  9998
2 43924  86.3945 280.1270 0002572  87.9265 272.2225 14.34217275 43737
IRIDIUM 173             
1 43925U 19002D   19316.49835012  .00000131  00000-0  39802-4 0  9998
2 43925  86.3942 280.1190 0002401  87.8462 272.3008 14.34214977 43720
IRIDIUM 169             
1 43926U 19002E   19316.46599127  .00000020  00000-0  63260-7 0  9995
2 43926  86.8947 311.4167 0004302  12.0412 348.0889 14.38637613 43920
IRIDIUM 172             
1 43927U 19002F   19316.49203367  .00000060  00000-0  14250-4 0  9993
2 43927  86.3942 280.1221 0002564  90.1293 270.0196 14.34216946 43727
IRIDIUM 175             
1 43928U 19002G   19316.51319991  .00000121  00000-0  15355-4 0  9993
2 43928  86.6062 280.0700 0001699  65.3148 294.8246 14.72255066 44859
IRIDIUM 171             
1 43929U 19002H   19316.47300102  .00000054  00000-0  12100-4 0  9993
2 43929  86.3952 280.1687 0002520  86.8210 273.3275 14.34218167 43719
IRIDIUM 170             
1 43930U 19002J   19316.45763091  .00000119  00000-0  15013-4 0  9991
2 43930  86.6077 280.1659 0002043  91.5598 268.5853 14.72253704 44866
IRIDIUM 167             
1 43931U 19002K   19316.39687745  .00000057  00000-0  13256-4 0  9994
2 43931  86.3943 280.1631 0003220  94.7064 265.4499 14.34218954 43707
